{"type": "FeatureCollection", "features": [ {"type": "Feature", "properties": {"norad_id": 40115, "name": "WORLDVIEW-3 (WV-3)", "group": "resource", "lat": -1.5846469848733966, "lon": -124.65625041085511, "alt_km": 612.2511643890666, "timestamp": "2025-12-09T05:43:20.384893+00:00", "meta": {"OBJECT_NAME": "WORLDVIEW-3 (WV-3)", "OBJECT_ID": "2014-048A", "EPOCH": "2025-12-08T19:12:29.325888", "MEAN_MOTION": 14.85497905, "ECCENTRICITY": 0.0004452, "INCLINATION": 97.8619, "RA_OF_ASC_NODE": 55.1302, "ARG_OF_PERICENTER": 198.3569, "MEAN_ANOMALY": 161.7486, "EPHEMERIS_TYPE": 0, "CLASSIFICATION_TYPE": "U", "NORAD_CAT_ID": 40115, "ELEMENT_SET_NO": 999, "REV_AT_EPOCH": 61365, "BSTAR": 0.00027111, "MEAN_MOTION_DOT": 2.287e-05, "MEAN_MOTION_DDOT": 0}, "tle": {"line1": "1 40115U 14048A   25342.80033942  .00002287  00000+0  27111-3 0  9996", "line2": "2 40115  97.8619  55.1302 0004452 198.3569 161.7486 14.85497905613651"}}, "geometry": {"type": "Point", "coordinates": [-124.65625041085511, -1.5846469848733966]}}, {"type": "Feature", "properties": {"norad_id": 40118, "name": "GAOFEN-2", "group": "resource", "lat": 59.40906200800282, "lon": 28.57014605605972, "alt_km": 618.8862979249634, "timestamp": "2025-12-09T05:43:20.384904+00:00", "meta": {"OBJECT_NAME": "GAOFEN-2", "OBJECT_ID": "2014-049A", "EPOCH": "2025-12-08T21:20:26.853216", "MEAN_MOTION": 14.80598207, "ECCENTRICITY": 0.0008419, "INCLINATION": 98.0387, "RA_OF_ASC_NODE": 42.051, "ARG_OF_PERICENTER": 123.2766, "MEAN_ANOMALY": 236.9253, "EPHEMERIS_TYPE": 0, "CLASSIFICATION_TYPE": "U", "NORAD_CAT_ID": 40118, "ELEMENT_SET_NO": 999, "REV_AT_EPOCH": 61107, "BSTAR": 0.00016233, "MEAN_MOTION_DOT": 1.192e-05, "MEAN_MOTION_DDOT": 0}, "tle": {"line1": "1 40118U 14049A   25342.88919969  .00001192  00000+0  16233-3 0  9997", "line2": "2 40118  98.0387  42.0510 0008419 123.2766 236.9253 14.80598207611071"}}, "geometry": {"type": "Point", "coordinates": [28.57014605605972, 59.40906200800282]}}, {"type": "Feature", "properties": {"norad_id": 40143, "name": "YAOGAN-21", "group": "resource", "lat": -22.475597659328805, "lon": -156.28458225069124, "alt_km": 506.4466017475279, "timestamp": "2025-12-09T05:43:20.384914+00:00", "meta": {"OBJECT_NAME": "YAOGAN-21", "OBJECT_ID": "2014-053A", "EPOCH": "2025-12-08T20:57:20.007936", "MEAN_MOTION": 15.23602227, "ECCENTRICITY": 0.0009988, "INCLINATION": 97.1755, "RA_OF_ASC_NODE": 26.3537, "ARG_OF_PERICENTER": 53.2516, "MEAN_ANOMALY": 306.9637, "EPHEMERIS_TYPE": 0, "CLASSIFICATION_TYPE": "U", "NORAD_CAT_ID": 40143, "ELEMENT_SET_NO": 999, "REV_AT_EPOCH": 62595, "BSTAR": 0.0002636, "MEAN_MOTION_DOT": 6.251e-05, "MEAN_MOTION_DDOT": 0}, "tle": {"line1": "1 40143U 14053A   25342.87314824  .00006251  00000+0  26360-3 0  9991", "line2": "2 40143  97.1755  26.3537 0009988  53.2516 306.9637 15.23602227625951"}}, "geometry": {"type": "Point", "coordinates": [-156.28458225069124, -22.475597659328805]}}, {"type": "Feature", "properties": {"norad_id": 40275, "name": "YAOGAN-22", "group": "resource", "lat": 42.69733530838247, "lon": -43.304603297068276, "alt_km": 1200.4464867367378, "timestamp": "2025-12-09T05:43:20.384925+00:00", "meta": {"OBJECT_NAME": "YAOGAN-22", "OBJECT_ID": "2014-063A", "EPOCH": "2025-12-08T19:54:18.497664", "MEAN_MOTION": 13.15522496, "ECCENTRICITY": 0.0005928, "INCLINATION": 100.742, "RA_OF_ASC_NODE": 126.1937, "ARG_OF_PERICENTER": 257.7302, "MEAN_ANOMALY": 102.3145, "EPHEMERIS_TYPE": 0, "CLASSIFICATION_TYPE": "U", "NORAD_CAT_ID": 40275, "ELEMENT_SET_NO": 999, "REV_AT_EPOCH": 53478, "BSTAR": 0.00012007, "MEAN_MOTION_DOT": -1e-08, "MEAN_MOTION_DDOT": 0}, "tle": {"line1": "1 40275U 14063A   25342.82938076 -.00000001  00000+0  12007-3 0  9995", "line2": "2 40275 100.7420 126.1937 0005928 257.7302 102.3145 13.15522496534784"}}, "geometry": {"type": "Point", "coordinates": [-43.304603297068276, 42.69733530838247]}}, {"type": "Feature", "properties": {"norad_id": 40298, "name": "ASNARO", "group": "resource", "lat": -56.107834649683, "lon": 70.37163400810113, "alt_km": 518.549036587794, "timestamp": "2025-12-09T05:43:20.384935+00:00", "meta": {"OBJECT_NAME": "ASNARO", "OBJECT_ID": "2014-070A", "EPOCH": "2025-12-08T20:29:18.826368", "MEAN_MOTION": 15.19360151, "ECCENTRICITY": 0.0005398, "INCLINATION": 97.365, "RA_OF_ASC_NODE": 58.8951, "ARG_OF_PERICENTER": 131.8087, "MEAN_ANOMALY": 228.361, "EPHEMERIS_TYPE": 0, "CLASSIFICATION_TYPE": "U", "NORAD_CAT_ID": 40298, "ELEMENT_SET_NO": 999, "REV_AT_EPOCH": 61510, "BSTAR": 0.00032872, "MEAN_MOTION_DOT": 6.887e-05, "MEAN_MOTION_DDOT": 0}, "tle": {"line1": "1 40298U 14070A   25342.85369012  .00006887  00000+0  32872-3 0  9998", "line2": "2 40298  97.3650  58.8951 0005398 131.8087 228.3610 15.19360151615101"}}, "geometry": {"type": "Point", "coordinates": [70.37163400810113, -56.107834649683]}}, {"type": "Feature", "properties": {"norad_id": 40310, "name": "YAOGAN-24", "group": "resource", "lat": 77.21041518349227, "lon": -26.700547783469833, "alt_km": 627.4218581272153, "timestamp": "2025-12-09T05:43:20.384946+00:00", "meta": {"OBJECT_NAME": "YAOGAN-24", "OBJECT_ID": "2014-072A", "EPOCH": "2025-12-08T21:08:14.048160", "MEAN_MOTION": 14.76166979, "ECCENTRICITY": 0.0014532, "INCLINATION": 98.1224, "RA_OF_ASC_NODE": 113.9536, "ARG_OF_PERICENTER": 149.6235, "MEAN_ANOMALY": 210.5819, "EPHEMERIS_TYPE": 0, "CLASSIFICATION_TYPE": "U", "NORAD_CAT_ID": 40310, "ELEMENT_SET_NO": 999, "REV_AT_EPOCH": 59564, "BSTAR": 0.00032924, "MEAN_MOTION_DOT": 2.227e-05, "MEAN_MOTION_DDOT": 0}, "tle": {"line1": "1 40310U 14072A   25342.88071815  .00002227  00000+0  32924-3 0  9991", "line2": "2 40310  98.1224 113.9536 0014532 149.6235 210.5819 14.76166979595640"}}, "geometry": {"type": "Point", "coordinates": [-26.700547783469833, 77.21041518349227]}}, {"type": "Feature", "properties": {"norad_id": 40336, "name": "CBERS 4", "group": "resource", "lat": -7.8555529813176665, "lon": 42.53342139427372, "alt_km": 777.849108195127, "timestamp": "2025-12-09T05:43:20.384956+00:00", "meta": {"OBJECT_NAME": "CBERS 4", "OBJECT_ID": "2014-079A", "EPOCH": "2025-12-08T21:23:42.084384", "MEAN_MOTION": 14.35514965, "ECCENTRICITY": 0.0001535, "INCLINATION": 98.3311, "RA_OF_ASC_NODE": 41.0399, "ARG_OF_PERICENTER": 115.1732, "MEAN_ANOMALY": 244.9613, "EPHEMERIS_TYPE": 0, "CLASSIFICATION_TYPE": "U", "NORAD_CAT_ID": 40336, "ELEMENT_SET_NO": 999, "REV_AT_EPOCH": 57665, "BSTAR": 4.5697e-05, "MEAN_MOTION_DOT": 8.9e-07, "MEAN_MOTION_DDOT": 0}, "tle": {"line1": "1 40336U 14079A   25342.89145931  .00000089  00000+0  45697-4 0  9994", "line2": "2 40336  98.3311  41.0399 0001535 115.1732 244.9613 14.35514965576654"}}, "geometry": {"type": "Point", "coordinates": [42.53342139427372, -7.8555529813176665]}}, {"type": "Feature", "properties": {"norad_id": 40362, "name": "YAOGAN-26", "group": "resource", "lat": 79.01277170423634, "lon": -55.66015072397052, "alt_km": 437.9794743156781, "timestamp": "2025-12-09T05:43:20.384968+00:00", "meta": {"OBJECT_NAME": "YAOGAN-26", "OBJECT_ID": "2014-088A", "EPOCH": "2025-12-08T21:34:04.230048", "MEAN_MOTION": 15.39092981, "ECCENTRICITY": 0.0006867, "INCLINATION": 97.0642, "RA_OF_ASC_NODE": 343.7099, "ARG_OF_PERICENTER": 39.9249, "MEAN_ANOMALY": 320.2501, "EPHEMERIS_TYPE": 0, "CLASSIFICATION_TYPE": "U", "NORAD_CAT_ID": 40362, "ELEMENT_SET_NO": 999, "REV_AT_EPOCH": 60835, "BSTAR": 0.00068113, "MEAN_MOTION_DOT": 0.00026379, "MEAN_MOTION_DDOT": 0}, "tle": {"line1": "1 40362U 14088A   25342.89866007  .00026379  00000+0  68113-3 0  9994", "line2": "2 40362  97.0642 343.7099 0006867  39.9249 320.2501 15.39092981608355"}}, "geometry": {"type": "Point", "coordinates": [-55.66015072397052, 79.01277170423634]}}, {"type": "Feature", "properties": {"norad_id": 40376, "name": "SMAP", "group": "resource", "lat": -24.679153079098846, "lon": 164.24695655980946, "alt_km": 688.3855278567007, "timestamp": "2025-12-09T05:43:20.384978+00:00", "meta": {"OBJECT_NAME": "SMAP", "OBJECT_ID": "2015-003A", "EPOCH": "2025-12-08T18:56:34.370016", "MEAN_MOTION": 14.63338183, "ECCENTRICITY": 0.0001208, "INCLINATION": 98.129, "RA_OF_ASC_NODE": 347.5701, "ARG_OF_PERICENTER": 88.2952, "MEAN_ANOMALY": 271.8388, "EPHEMERIS_TYPE": 0, "CLASSIFICATION_TYPE": "U", "NORAD_CAT_ID": 40376, "ELEMENT_SET_NO": 999, "REV_AT_EPOCH": 57977, "BSTAR": 0.00023325, "MEAN_MOTION_DOT": 1.158e-05, "MEAN_MOTION_DDOT": 0}, "tle": {"line1": "1 40376U 15003A   25342.78928669  .00001158  00000+0  23325-3 0  9992", "line2": "2 40376  98.1290 347.5701 0001208  88.2952 271.8388 14.63338183579775"}}, "geometry": {"type": "Point", "coordinates": [164.24695655980946, -24.679153079098846]}}, {"type": "Feature", "properties": {"norad_id": 40536, "name": "KOMPSAT-3A", "group": "resource", "lat": -36.315333873145384, "lon": -36.91657588293832, "alt_km": 444.4666169372085, "timestamp": "2025-12-09T05:43:20.384989+00:00", "meta": {"OBJECT_NAME": "KOMPSAT-3A", "OBJECT_ID": "2015-014A", "EPOCH": "2025-12-08T20:32:49.452288", "MEAN_MOTION": 15.43729997, "ECCENTRICITY": 0.000447, "INCLINATION": 97.679, "RA_OF_ASC_NODE": 316.9887, "ARG_OF_PERICENTER": 134.6938, "MEAN_ANOMALY": 225.4674, "EPHEMERIS_TYPE": 0, "CLASSIFICATION_TYPE": "U", "NORAD_CAT_ID": 40536, "ELEMENT_SET_NO": 999, "REV_AT_EPOCH": 59235, "BSTAR": 0.00060312, "MEAN_MOTION_DOT": 0.00027216, "MEAN_MOTION_DDOT": 0}, "tle": {"line1": "1 40536U 15014A   25342.85612792  .00027216  00000+0  60312-3 0  9997", "line2": "2 40536  97.6790 316.9887 0004470 134.6938 225.4674 15.43729997592359"}}, "geometry": {"type": "Point", "coordinates": [-36.91657588293832, -36.315333873145384]}}]}